OBJECT_NAME,OBJECT_ID,EPOCH,MEAN_MOTION,ECCENTRICITY,INCLINATION,RA_OF_ASC_NODE,ARG_OF_PERICENTER,MEAN_ANOMALY,EPHEMERIS_TYPE,CLASSIFICATION_TYPE,NORAD_CAT_ID,ELEMENT_SET_NO,REV_AT_EPOCH,BSTAR,MEAN_MOTION_DOT,MEAN_MOTION_DDOT
STARLINK-3194,2021-115AL,2026-03-09T10:18:27.802944,15.08835621,.0001635,53.2166,140.2941,81.7139,278.4039,0,U,49758,999,23563,-.16993E-3,-.2991E-4,0
FENGYUN 1C DEB,1999-025DMH,2026-03-08T12:22:59.285280,14.74467635,.01679532,98.8961,332.7174,174.5846,185.7228,0,U,35153,999,98481,.43532495E-3,.3561E-4,0
